[{"OBJECT_NAME":"STARLINK-4724","OBJECT_ID":"2022-107C","EPOCH":"2026-03-09T16:12:09.707040","MEAN_MOTION":15.08844294,"ECCENTRICITY":0.00010108,"INCLINATION":53.2171,"RA_OF_ASC_NODE":229.0876,"ARG_OF_PERICENTER":70.0225,"MEAN_ANOMALY":290.0876,"EPHEMERIS_TYPE":0,"CLASSIFICATION_TYPE":"U","NORAD_CAT_ID":53702,"ELEMENT_SET_NO":999,"REV_AT_EPOCH":19509,"BSTAR":-2.4367372e-5,"MEAN_MOTION_DOT":-6.76e-6,"MEAN_MOTION_DDOT":0},{"OBJECT_NAME":"FENGYUN 1C DEB","OBJECT_ID":"1999-025QK","EPOCH":"2026-03-09T09:38:35.752416","MEAN_MOTION":15.21777611,"ECCENTRICITY":0.00584989,"INCLINATION":98.8236,"RA_OF_ASC_NODE":15.4163,"ARG_OF_PERICENTER":235.7553,"MEAN_ANOMALY":123.8129,"EPHEMERIS_TYPE":0,"CLASSIFICATION_TYPE":"U","NORAD_CAT_ID":30082,"ELEMENT_SET_NO":999,"REV_AT_EPOCH":2608,"BSTAR":0.001566847,"MEAN_MOTION_DOT":0.00037313,"MEAN_MOTION_DDOT":0}]
